[{"OBJECT_NAME":"DUPLEX","OBJECT_ID":"1998-067XS","EPOCH":"2026-04-07T18:52:04.043424","MEAN_MOTION":15.5821606,"ECCENTRICITY":0.0003522,"INCLINATION":51.6285,"RA_OF_ASC_NODE":283.704,"ARG_OF_PERICENTER":253.2667,"MEAN_ANOMALY":106.7939,"EPHEMERIS_TYPE":0,"CLASSIFICATION_TYPE":"U","NORAD_CAT_ID":66906,"ELEMENT_SET_NO":999,"REV_AT_EPOCH":1966,"BSTAR":0.00040474,"MEAN_MOTION_DOT":0.00030798,"MEAN_MOTION_DDOT":0},{"OBJECT_NAME":"ISS OBJECT XT","OBJECT_ID":"1998-067XT","EPOCH":"2026-04-07T18:32:35.664864","MEAN_MOTION":15.82192481,"ECCENTRICITY":0.0008079,"INCLINATION":51.6213,"RA_OF_ASC_NODE":276.0569,"ARG_OF_PERICENTER":270.5653,"MEAN_ANOMALY":89.4423,"EPHEMERIS_TYPE":0,"CLASSIFICATION_TYPE":"U","NORAD_CAT_ID":66907,"ELEMENT_SET_NO":999,"REV_AT_EPOCH":1976,"BSTAR":0.0013353,"MEAN_MOTION_DOT":0.00290056,"MEAN_MOTION_DDOT":0},{"OBJECT_NAME":"ISS OBJECT XU","OBJECT_ID":"1998-067XU","EPOCH":"2026-04-07T18:24:09.148320","MEAN_MOTION":15.8260276,"ECCENTRICITY":0.0008091,"INCLINATION":51.6217,"RA_OF_ASC_NODE":276.013,"ARG_OF_PERICENTER":269.3339,"MEAN_ANOMALY":90.6736,"EPHEMERIS_TYPE":0,"CLASSIFICATION_TYPE":"U","NORAD_CAT_ID":66908,"ELEMENT_SET_NO":999,"REV_AT_EPOCH":1976,"BSTAR":0.0012627,"MEAN_MOTION_DOT":0.00279232,"MEAN_MOTION_DDOT":0},{"OBJECT_NAME":"SILVERSAT","OBJECT_ID":"1998-067XV","EPOCH":"2026-04-07T17:47:53.198016","MEAN_MOTION":15.91226694,"ECCENTRICITY":0.0010348,"INCLINATION":51.6168,"RA_OF_ASC_NODE":274.3166,"ARG_OF_PERICENTER":278.9089,"MEAN_ANOMALY":81.0746,"EPHEMERIS_TYPE":0,"CLASSIFICATION_TYPE":"U","NORAD_CAT_ID":66909,"ELEMENT_SET_NO":999,"REV_AT_EPOCH":1978,"BSTAR":0.0015992,"MEAN_MOTION_DOT":0.00522074,"MEAN_MOTION_DDOT":0.00011642},{"OBJECT_NAME":"ISS OBJECT XW","OBJECT_ID":"1998-067XW","EPOCH":"2026-04-07T12:55:30.923040","MEAN_MOTION":15.79698833,"ECCENTRICITY":0.00080021,"INCLINATION":51.6198,"RA_OF_ASC_NODE":277.4863,"ARG_OF_PERICENTER":263.9225,"MEAN_ANOMALY":96.0864,"EPHEMERIS_TYPE":0,"CLASSIFICATION_TYPE":"U","NORAD_CAT_ID":66910,"ELEMENT_SET_NO":999,"REV_AT_EPOCH":1972,"BSTAR":0.0012546506,"MEAN_MOTION_DOT":0.00241496,"MEAN_MOTION_DDOT":0},{"OBJECT_NAME":"ISS OBJECT XX","OBJECT_ID":"1998-067XX","EPOCH":"2026-04-07T17:55:51.853152","MEAN_MOTION":16.07019033,"ECCENTRICITY":0.0013061,"INCLINATION":51.6105,"RA_OF_ASC_NODE":272.0434,"ARG_OF_PERICENTER":286.9914,"MEAN_ANOMALY":72.9667,"EPHEMERIS_TYPE":0,"CLASSIFICATION_TYPE":"U","NORAD_CAT_ID":66911,"ELEMENT_SET_NO":999,"REV_AT_EPOCH":1980,"BSTAR":0.0019821,"MEAN_MOTION_DOT":0.0156725,"MEAN_MOTION_DDOT":0.001641},{"OBJECT_NAME":"ISS OBJECT XY","OBJECT_ID":"1998-067XY","EPOCH":"2026-04-07T19:04:28.274880","MEAN_MOTION":15.70311218,"ECCENTRICITY":0.0005463,"INCLINATION":51.6248,"RA_OF_ASC_NODE":279.2415,"ARG_OF_PERICENTER":262.8563,"MEAN_ANOMALY":97.1814,"EPHEMERIS_TYPE":0,"CLASSIFICATION_TYPE":"U","NORAD_CAT_ID":66912,"ELEMENT_SET_NO":999,"REV_AT_EPOCH":1971,"BSTAR":0.00094676,"MEAN_MOTION_DOT":0.00118972,"MEAN_MOTION_DDOT":0},{"OBJECT_NAME":"KNACKSAT-2","OBJECT_ID":"1998-067XZ","EPOCH":"2026-04-07T19:29:19.932000","MEAN_MOTION":15.54410915,"ECCENTRICITY":0.0010799,"INCLINATION":51.6306,"RA_OF_ASC_NODE":286.8782,"ARG_OF_PERICENTER":294.1615,"MEAN_ANOMALY":65.8246,"EPHEMERIS_TYPE":0,"CLASSIFICATION_TYPE":"U","NORAD_CAT_ID":67683,"ELEMENT_SET_NO":999,"REV_AT_EPOCH":931,"BSTAR":0.00060508,"MEAN_MOTION_DOT":0.00040284,"MEAN_MOTION_DDOT":0},{"OBJECT_NAME":"CORAL","OBJECT_ID":"1998-067YA","EPOCH":"2026-04-07T18:40:13.062144","MEAN_MOTION":15.5975983,"ECCENTRICITY":0.0014019,"INCLINATION":51.6295,"RA_OF_ASC_NODE":285.9003,"ARG_OF_PERICENTER":285.2512,"MEAN_ANOMALY":74.693,"EPHEMERIS_TYPE":0,"CLASSIFICATION_TYPE":"U","NORAD_CAT_ID":67684,"ELEMENT_SET_NO":999,"REV_AT_EPOCH":932,"BSTAR":0.0010899,"MEAN_MOTION_DOT":0.0008989,"MEAN_MOTION_DDOT":0},{"OBJECT_NAME":"GXIBA-1","OBJECT_ID":"1998-067YB","EPOCH":"2026-04-07T19:09:20.585952","MEAN_MOTION":15.55079713,"ECCENTRICITY":0.0012746,"INCLINATION":51.6302,"RA_OF_ASC_NODE":286.7855,"ARG_OF_PERICENTER":290.8991,"MEAN_ANOMALY":69.0635,"EPHEMERIS_TYPE":0,"CLASSIFICATION_TYPE":"U","NORAD_CAT_ID":67685,"ELEMENT_SET_NO":999,"REV_AT_EPOCH":931,"BSTAR":0.00066539,"MEAN_MOTION_DOT":0.00045533,"MEAN_MOTION_DDOT":0},{"OBJECT_NAME":"UITMSAT-2","OBJECT_ID":"1998-067YC","EPOCH":"2026-04-07T18:38:16.318464","MEAN_MOTION":15.56307847,"ECCENTRICITY":0.000981,"INCLINATION":51.6307,"RA_OF_ASC_NODE":286.6443,"ARG_OF_PERICENTER":266.8637,"MEAN_ANOMALY":93.1232,"EPHEMERIS_TYPE":0,"CLASSIFICATION_TYPE":"U","NORAD_CAT_ID":67686,"ELEMENT_SET_NO":999,"REV_AT_EPOCH":931,"BSTAR":0.00076494,"MEAN_MOTION_DOT":0.00054855,"MEAN_MOTION_DDOT":0},{"OBJECT_NAME":"HMU-SAT2","OBJECT_ID":"1998-067YD","EPOCH":"2026-04-07T13:08:41.692992","MEAN_MOTION":15.54767252,"ECCENTRICITY":0.00092014,"INCLINATION":51.6309,"RA_OF_ASC_NODE":288.1167,"ARG_OF_PERICENTER":267.8152,"MEAN_ANOMALY":92.1785,"EPHEMERIS_TYPE":0,"CLASSIFICATION_TYPE":"U","NORAD_CAT_ID":67687,"ELEMENT_SET_NO":999,"REV_AT_EPOCH":919,"BSTAR":0.00062354053,"MEAN_MOTION_DOT":0.0004206,"MEAN_MOTION_DDOT":0},{"OBJECT_NAME":"LEOPARD","OBJECT_ID":"1998-067YE","EPOCH":"2026-04-07T17:19:56.520480","MEAN_MOTION":15.55740995,"ECCENTRICITY":0.0009477,"INCLINATION":51.6306,"RA_OF_ASC_NODE":287.0316,"ARG_OF_PERICENTER":267.0956,"MEAN_ANOMALY":92.8951,"EPHEMERIS_TYPE":0,"CLASSIFICATION_TYPE":"U","NORAD_CAT_ID":67688,"ELEMENT_SET_NO":999,"REV_AT_EPOCH":922,"BSTAR":0.00070444,"MEAN_MOTION_DOT":0.0004938,"MEAN_MOTION_DDOT":0},{"OBJECT_NAME":"CREW DRAGON 12","OBJECT_ID":"2026-031A","EPOCH":"2026-04-07T19:28:45.281280","MEAN_MOTION":15.4882167,"ECCENTRICITY":0.0006339,"INCLINATION":51.6331,"RA_OF_ASC_NODE":288.3735,"ARG_OF_PERICENTER":285.1531,"MEAN_ANOMALY":74.8756,"EPHEMERIS_TYPE":0,"CLASSIFICATION_TYPE":"U","NORAD_CAT_ID":67796,"ELEMENT_SET_NO":999,"REV_AT_EPOCH":56086,"BSTAR":0.00013797,"MEAN_MOTION_DOT":7.114e-5,"MEAN_MOTION_DDOT":0},{"OBJECT_NAME":"PROGRESS-MS 33","OBJECT_ID":"2026-058A","EPOCH":"2026-04-07T19:28:45.281280","MEAN_MOTION":15.4882167,"ECCENTRICITY":0.0006339,"INCLINATION":51.6331,"RA_OF_ASC_NODE":288.3735,"ARG_OF_PERICENTER":285.1531,"MEAN_ANOMALY":74.8756,"EPHEMERIS_TYPE":0,"CLASSIFICATION_TYPE":"U","NORAD_CAT_ID":68319,"ELEMENT_SET_NO":999,"REV_AT_EPOCH":237,"BSTAR":0.00013797,"MEAN_MOTION_DOT":7.114e-5,"MEAN_MOTION_DDOT":0}]
