DUPLEX                  
1 66906U 98067XS  26097.78615791  .00030798  00000+0  40474-3 0  9993
2 66906  51.6285 283.7040 0003522 253.2667 106.7939 15.58216060 19664
ISS OBJECT XT           
1 66907U 98067XT  26097.77263501  .00290056  00000+0  13353-2 0  9991
2 66907  51.6213 276.0569 0008079 270.5653  89.4423 15.82192481 19769
ISS OBJECT XU           
1 66908U 98067XU  26097.76677255  .00279232  00000+0  12627-2 0  9992
2 66908  51.6217 276.0130 0008091 269.3339  90.6736 15.82602760 19766
SILVERSAT               
1 66909U 98067XV  26097.74158794  .00522074  11642-3  15992-2 0  9994
2 66909  51.6168 274.3166 0010348 278.9089  81.0746 15.91226694 19783
ISS OBJECT XW           
1 66910U 98067XW  26097.53855235  .00241496  00000+0  12547-2 0  9998
2 66910  51.6198 277.4863 0008002 263.9225  96.0864 15.79698833 19721
ISS OBJECT XX           
1 66911U 98067XX  26097.74712793  .01567250  16410-2  19821-2 0  9990
2 66911  51.6105 272.0434 0013061 286.9914  72.9667 16.07019033 19800
ISS OBJECT XY           
1 66912U 98067XY  26097.79477170  .00118972  00000+0  94676-3 0  9992
2 66912  51.6248 279.2415 0005463 262.8563  97.1814 15.70311218 19719
KNACKSAT-2              
1 67683U 98067XZ  26097.81203625  .00040284  00000+0  60508-3 0  9990
2 67683  51.6306 286.8782 0010799 294.1615  65.8246 15.54410915  9317
CORAL                   
1 67684U 98067YA  26097.77792896  .00089890  00000+0  10899-2 0  9992
2 67684  51.6295 285.9003 0014019 285.2512  74.6930 15.59759830  9323
GXIBA-1                 
1 67685U 98067YB  26097.79815493  .00045533  00000+0  66539-3 0  9993
2 67685  51.6302 286.7855 0012746 290.8991  69.0635 15.55079713  9315
UITMSAT-2               
1 67686U 98067YC  26097.77657776  .00054855  00000+0  76494-3 0  9998
2 67686  51.6307 286.6443 0009810 266.8637  93.1232 15.56307847  9315
HMU-SAT2                
1 67687U 98067YD  26097.54770478  .00042060  00000+0  62354-3 0  9994
2 67687  51.6309 288.1167 0009201 267.8152  92.1785 15.54767252  9191
LEOPARD                 
1 67688U 98067YE  26097.72218195  .00049380  00000+0  70444-3 0  9999
2 67688  51.6306 287.0316 0009477 267.0956  92.8951 15.55740995  9224
CREW DRAGON 12          
1 67796U 26031A   26097.81163520  .00007114  00000+0  13797-3 0  9999
2 67796  51.6331 288.3735 0006339 285.1531  74.8756 15.48821670560862
PROGRESS-MS 33          
1 68319U 26058A   26097.81163520  .00007114  00000+0  13797-3 0  9990
2 68319  51.6331 288.3735 0006339 285.1531  74.8756 15.48821670  2371
